ONEWEB-0269             
1 48987U 21060W   22236.14200355  .00000057  00000+0  11641-3 0  9997
2 48987  87.9138 146.1644 0001980  81.4442 278.6913 13.16591500 57628
ONEWEB-0270             
1 48988U 21060X   22235.85414319 -.00000063  00000+0 -19845-3 0  9995
2 48988  87.9152 146.2065 0002076  68.3699 291.7653 13.16596724 56324
ONEWEB-0271             
1 48989U 21060Y   22236.22260375 -.00000168  00000+0 -47399-3 0  9990
2 48989  87.9150 146.1109 0002538  75.0658 285.0754 13.16593574 57660
ONEWEB-0272             
1 48990U 21060Z   22235.48566243 -.00000040  00000+0 -13808-3 0  9999
2 48990  87.9140 146.2731 0002439  79.2944 280.8461 13.16595596 56222
ONEWEB-0273             
1 48991U 21060AA  22235.50640187  .00000155  00000+0  37291-3 0  9990
2 48991  87.9149 146.2722 0002235  73.9317 286.2060 13.16591234 56209
ONEWEB-0274             
1 48992U 21060AB  22235.83573936  .00000016  00000+0  80211-5 0  9992
2 48992  87.9118 146.2073 0002424  73.7483 286.3914 13.16592874 56285
ONEWEB-0275             
1 48993U 21060AC  22235.52023229  .00000101  00000+0  23119-3 0  9991
2 48993  87.9153 146.2632 0002272  76.1534 283.9850 13.16590371 56171
ONEWEB-0276             
1 48994U 21060AD  22235.47877355 -.00000071  00000+0 -21859-3 0  9990
2 48994  87.9131 146.3166 0002436  70.0590 290.0804 13.16595734 56185
ONEWEB-0277             
1 48995U 21060AE  22236.25255309  .00000034  00000+0  55997-4 0  9995
2 48995  87.9129 146.1651 0002728  75.5242 284.6191 13.16591979 57566
ONEWEB-0278             
1 48996U 21060AF  22235.25307855  .00000126  00000+0  29507-3 0  9998
2 48996  87.9148 146.3095 0002182  73.7700 286.3671 13.16594879 56276
ONEWEB-0279             
1 48997U 21060AG  22235.49027981  .00000018  00000+0  13776-4 0  9996
2 48997  87.9147 146.2707 0001902  75.4814 284.6527 13.16594425 56233
ONEWEB-0280             
1 48998U 21060AH  22236.18807574  .00000430  00000+0  10903-2 0  9993
2 48998  87.9138 146.1496 0002932  75.0495 285.0960 13.16584773 57550
ONEWEB-0281             
1 48999U 21060AJ  22236.19499333  .00000142  00000+0  33838-3 0  9998
2 48999  87.9149 146.1244 0001989  87.4725 272.6634 13.16596171 57643
ONEWEB-0282             
1 49000U 21060AK  22236.22493234  .00000018  00000+0  14521-4 0  9991
2 49000  87.9133 146.1521 0002404  69.5777 290.5612 13.16592710 57638
ONEWEB-0283             
1 49001U 21060AL  22236.21341364  .00000102  00000+0  23417-3 0  9994
2 49001  87.9126 146.1473 0002407  76.2973 283.8425 13.16594935 57642
ONEWEB-0284             
1 49002U 21060AM  22236.20647727  .00000170  00000+0  41105-3 0  9995
2 49002  87.9145 146.1734 0002347  68.2374 291.9007 13.16597748 57611
ONEWEB-0285             
1 49075U 21075A   22236.13420218  .00000036  00000+0  63420-4 0  9993
2 49075  87.8824 267.4870 0002200  91.7808 268.3573 13.12444732 53468
ONEWEB-0286             
1 49076U 21075B   22236.48363594  .00000184  00000+0  47692-3 0  9991
2 49076  87.8850 267.3862 0001766 110.2544 249.8775 13.12442959 52868
ONEWEB-0287             
1 49077U 21075C   22236.20252468 -.00000012  00000+0 -63873-4 0  9991
2 49077  87.9047 282.7319 0001744  85.2090 274.9241 13.17649559 51157
ONEWEB-0288             
1 49078U 21075D   22236.08760265  .00000354  00000+0  94960-3 0  9994
2 49078  87.8852 267.4615 0001724  96.1800 263.9525 13.12441131 53446
ONEWEB-0289             
1 49079U 21075E   22235.38583823  .00000024  00000+0  28473-4 0  9991
2 49079  87.9050 282.8653 0001958 100.8854 259.2498 13.17647648 50655
ONEWEB-0290             
1 49080U 21075F   22236.20872850  .00000052  00000+0  99946-4 0  9990
2 49080  87.9040 282.7266 0001865  82.7063 277.4280 13.17648914 51156
ONEWEB-0291             
1 49081U 21075G   22236.19787288  .00000004  00000+0 -23887-4 0  9998
2 49081  87.9027 282.7196 0001682  89.0426 271.0898 13.17648574 51151
ONEWEB-0293             
1 49082U 21075H   22236.21493221 -.00000110  00000+0 -31679-3 0  9999
2 49082  87.9040 282.6957 0001778  84.4444 275.6890 13.17648998 51170
ONEWEB-0294             
1 49083U 21075J   22236.16913306  .00000253  00000+0  66840-3 0  9999
2 49083  87.8850 267.4513 0002022  78.1334 282.0021 13.12439718 52845
ONEWEB-0295             
1 49084U 21075K   22236.21646518 -.00000071  00000+0 -21571-3 0  9996
2 49084  87.9039 282.6586 0001366  86.0781 274.0506 13.17650499 51113
ONEWEB-0296             
1 49085U 21075L   22236.15324073  .00000487  00000+0  13169-2 0  9991
2 49085  87.8850 267.4494 0000888  78.7514 281.3714 13.12446210 52845
ONEWEB-0297             
1 49086U 21075M   22235.80169232 -.00000233  00000+0 -68448-3 0  9999
2 49086  87.8813 267.5572 0002236 105.0635 255.0741 13.12443987 52419
ONEWEB-0298             
1 49087U 21075N   22236.21801976 -.00000005  00000+0 -45055-4 0  9991
2 49087  87.9055 282.6794 0001734 109.0880 251.0439 13.17648973 51170
ONEWEB-0299             
1 49088U 21075P   22236.21959179 -.00000477  00000+0 -12624-2 0  9998
2 49088  87.9087 282.6290 0001204  80.4941 279.6327 13.17641783 51139
ONEWEB-0300             
1 49089U 21075Q   22236.17442382  .00000101  00000+0  24463-3 0  9994
2 49089  87.8843 267.4407 0002052 102.7334 257.4024 13.12442526 53472
ONEWEB-0301             
1 49090U 21075R   22236.15960661  .00000423  00000+0  11403-2 0  9995
2 49090  87.8849 267.4546 0002239  95.8582 264.2802 13.12440296 52839
ONEWEB-0302             
1 49091U 21075S   22236.14795913  .00000402  00000+0  10825-2 0  9995
2 49091  87.8851 267.4567 0001720  91.3881 268.7444 13.12442250 52825
ONEWEB-0304             
1 49092U 21075T   22235.82437979  .00000142  00000+0  33183-3 0  9999
2 49092  87.9042 282.7671 0001947  95.3884 264.7470 13.17647708 50084
ONEWEB-0305             
1 49093U 21075U   22236.19632296  .00000062  00000+0  12564-3 0  9991
2 49093  87.9045 282.7375 0001470 102.1290 258.0006 13.17646095 51134
ONEWEB-0308             
1 49094U 21075V   22235.45651136  .00000300  00000+0  79710-3 0  9995
2 49094  87.8851 267.5907 0002058  95.9593 264.1770 13.12445710 51748
ONEWEB-0309             
1 49095U 21075W   22236.20097142 -.00000014  00000+0 -68459-4 0  9994
2 49095  87.9053 282.7408 0002031  76.7376 283.3982 13.17649935 51126
ONEWEB-0310             
1 49096U 21075X   22236.15538723  .00000474  00000+0  12829-2 0  9990
2 49096  87.8814 267.5081 0001837  83.4630 276.6708 13.12439041 53460
ONEWEB-0311             
1 49097U 21075Y   22236.20562795  .00000038  00000+0  65544-4 0  9993
2 49097  87.9052 282.7418 0001662 105.8063 254.3252 13.17648998 51186
ONEWEB-0312             
1 49098U 21075Z   22236.13744869  .00000018  00000+0  11896-4 0  9999
2 49098  87.9064 282.7145 0001624  87.4725 272.6592 13.17649653 51139
ONEWEB-0313             
1 49099U 21075AA  22236.19942906 -.00000030  00000+0 -11125-3 0  9998
2 49099  87.9048 282.7413 0001538  88.1200 272.0107 13.17649776 51154
ONEWEB-0314             
1 49100U 21075AB  22236.19477013 -.00000044  00000+0 -14581-3 0  9997
2 49100  87.9052 282.7407 0001538  88.8999 271.2309 13.17650489 51111
ONEWEB-0315             
1 49101U 21075AC  22236.12570625 -.00000289  00000+0 -83937-3 0  9996
2 49101  87.8850 267.4527 0001727 101.4067 258.7256 13.12446155 53445
ONEWEB-0316             
1 49102U 21075AD  22235.91668981  .00045634  00000+0  11518+0 0  9999
2 49102  87.9093 252.2779 0001663 106.3756 280.7207 13.18662147  1301
ONEWEB-0317             
1 49103U 21075AE  22235.81654667 -.00000249  00000+0 -72739-3 0  9996
2 49103  87.8813 267.5364 0001875  84.2293 275.9049 13.12444838 52423
ONEWEB-0318             
1 49104U 21075AF  22235.91668981  .00045969  00000+0  11602+0 0  9996
2 49104  87.9095 252.2612 0001771 105.5645 288.9915 13.18662714  1305
ONEWEB-0319             
1 49105U 21075AG  22236.20716169 -.00000039  00000+0 -13248-3 0  9995
2 49105  87.9050 282.7013 0001594 120.8017 239.3272 13.17646477 51157
ONEWEB-0323             
1 49106U 21075AH  22236.18818598 -.00000274  00000+0 -79599-3 0  9994
2 49106  87.8849 267.4415 0001755  98.5330 261.5998 13.12441197 52832
ONEWEB-0329             
1 49107U 21075AJ  22236.21027943 -.00000038  00000+0 -13112-3 0  9992
2 49107  87.9046 282.6989 0001705  94.6557 265.4769 13.17650452 51133
ONEWEB-0330             
1 49108U 21075AK  22236.21182884 -.00000088  00000+0 -26038-3 0  9995
2 49108  87.9051 282.7176 0001793  92.4701 267.6635 13.17647636 51173
ONEWEB-0292             
1 49186U 21083A   22236.48485921 -.00001983  00000+0 -54670-2 0  9994
2 49186  87.8951 236.8922 0002077  93.7195 266.4171 13.13448076 49399
ONEWEB-0303             
1 49187U 21083B   22236.05808544  .00000048  00000+0  89353-4 0  9995
2 49187  87.9096 252.2358 0001682  94.9304 265.2020 13.18687881 47653
ONEWEB-0306             
1 49188U 21083C   22236.12779057  .00000086  00000+0  18573-3 0  9997
2 49188  87.9102 252.2142 0001818 108.2192 251.9138 13.18686959 47701
ONEWEB-0307             
1 49189U 21083D   22236.02334177 -.00005250  00000+0 -14430-1 0  9993
2 49189  87.8952 236.9833 0001867  89.2386 270.8957 13.13425202 49334
ONEWEB-0320             
1 49190U 21083E   22236.05656771  .00000075  00000+0  15671-3 0  9993
2 49190  87.9097 252.2448 0002027  82.3366 277.7996 13.18687423 47653
ONEWEB-0321             
1 49191U 21083F   22236.66667824 -.00046258  00000+0 -47959-2 0  9990
2 49191  87.2098 206.4039 0003790 127.4704 159.1229 14.90366790 52593
ONEWEB-0322             
1 49192U 21083G   22236.01889233 -.00008681  00000+0 -23854-1 0  9995
2 49192  87.8936 236.9732 0002093  60.3259 299.8078 13.13398942 49323
ONEWEB-0324             
1 49193U 21083H   22236.50097952 -.00000002  00000+0 -38699-4 0  9994
2 49193  87.9089 252.1459 0001519 102.2095 257.9207 13.18684999 47733
ONEWEB-0325             
1 49194U 21083J   22236.12467916 -.00000531  00000+0 -13787-2 0  9990
2 49194  87.9213 252.1266 0002121  72.9817 287.1548 13.18683449 47691
